OBJECT_NAME,OBJECT_ID,EPOCH,MEAN_MOTION,ECCENTRICITY,INCLINATION,RA_OF_ASC_NODE,ARG_OF_PERICENTER,MEAN_ANOMALY,EPHEMERIS_TYPE,CLASSIFICATION_TYPE,NORAD_CAT_ID,ELEMENT_SET_NO,REV_AT_EPOCH,BSTAR,MEAN_MOTION_DOT,MEAN_MOTION_DDOT
DMSP 5D-3 F16 (USA 172),2003-048A,2026-06-13T15:18:19.948032,14.14482858,.0007587,98.9891,188.4426,149.4243,322.3580,0,U,28054,999,16898,.3215152E-4,.16E-6,0
METEOSAT-9 (MSG-2),2005-049B,2026-06-12T18:32:58.600608,1.00270154,.00015467,9.3512,54.2102,347.3160,183.4652,0,U,28912,999,695,0,.13E-5,0
DMSP 5D-3 F17 (USA 191),2006-050A,2026-06-13T15:13:08.882112,14.14992634,.00112489,98.7378,171.2769,68.5999,291.6374,0,U,29522,999,1192,.43085525E-4,.4E-6,0
FENGYUN 3A,2008-026A,2026-06-13T10:51:50.383872,14.19570404,.00094451,98.6884,105.3557,133.4321,226.7643,0,U,32958,999,93487,.44589689E-4,.51E-6,0
GOES 14,2009-033A,2026-06-13T13:20:38.627232,1.00111965,.00017313,1.6804,83.0856,9.8379,153.0285,0,U,35491,999,655,0,-.267E-5,0
DMSP 5D-3 F18 (USA 210),2009-057A,2026-06-13T14:31:35.620896,14.14894993,.00098496,98.9037,145.3822,260.9030,99.1029,0,U,35951,999,85908,.14275675E-3,.231E-5,0
EWS-G2 (GOES 15),2010-008A,2026-06-13T14:33:51.636096,1.00275662,.00053873,1.2674,82.9171,41.8918,59.2501,0,U,36411,999,5960,0,.28E-6,0
COMS 1,2010-032A,2026-06-13T15:16:54.144192,0.99162840,.00114591,4.7955,75.3945,11.7092,131.6920,0,U,36744,999,5105,0,-.2E-7,0
FENGYUN 3B,2010-059A,2026-06-13T15:17:15.600768,14.14842268,.00216923,98.9626,210.6364,194.3256,280.6532,0,U,37214,999,80692,.32397967E-3,.581E-5,0
SUOMI NPP,2011-061A,2026-06-13T14:30:53.088768,14.19516672,.00017344,98.7954,105.5053,15.2804,344.8424,0,U,37849,999,75793,.42129273E-4,.44E-6,0
METEOSAT-10 (MSG-3),2012-035B,2026-06-13T08:01:19.638912,1.00276141,.00014193,4.6622,61.0355,328.7695,352.4702,0,U,38552,999,5081,0,.4E-7,0
METOP-B,2012-049A,2026-06-13T14:23:31.188192,14.21431816,.00024525,98.6505,216.1703,28.4690,331.6621,0,U,38771,999,71275,.66669538E-4,.102E-5,0
INSAT-3D,2013-038B,2026-06-13T15:28:47.654400,1.00270818,.00005716,1.9166,82.5842,309.0573,232.0387,0,U,39216,999,4704,0,-.329E-5,0
FENGYUN 3C,2013-052A,2026-06-13T15:38:08.397312,14.15754365,.00154185,98.4985,138.6887,37.3757,322.8487,0,U,39260,999,65806,.53879775E-4,.65E-6,0
METEOR-M 2,2014-037A,2026-06-13T15:01:35.102208,14.21460858,.00068841,98.5105,140.4901,52.8186,307.3620,0,U,40069,999,61881,.11601574E-3,.212E-5,0
HIMAWARI-8,2014-060A,2026-06-13T15:48:04.050144,1.00272908,.00009869,0.0151,352.9462,93.9275,192.7700,0,U,40267,999,4272,0,-.264E-5,0
FENGYUN 2G,2014-090A,2026-06-12T17:05:43.406880,1.00274464,.00038557,5.6261,72.8714,153.3439,30.9139,0,U,40367,999,4195,0,-.292E-5,0
METEOSAT-11 (MSG-4),2015-034A,2026-06-13T14:54:30.370176,1.00279241,.00017555,3.1928,71.1314,8.9389,55.0512,0,U,40732,999,718,0,.74E-6,0
ELEKTRO-L 2,2015-074A,2026-06-12T23:23:49.807392,1.00270779,.00007363,6.6819,70.5757,255.3930,271.7863,0,U,41105,999,3846,0,-.109E-5,0
SENTINEL-3A,2016-011A,2026-06-13T15:21:30.551616,14.26739100,.00013834,98.6249,232.0744,102.9517,257.1818,0,U,41335,999,53755,.60520771E-4,.103E-5,0
INSAT-3DR,2016-054A,2026-06-13T14:48:32.548896,1.00270808,.00106162,0.0969,86.8646,187.1004,284.0782,0,U,41752,999,3578,0,-.66E-6,0
HIMAWARI-9,2016-064A,2026-06-13T15:48:04.100256,1.00270237,.00008054,0.0493,148.2974,350.9768,140.4878,0,U,41836,999,3517,0,-.264E-5,0
GOES 16,2016-071A,2026-06-13T14:22:00.303168,1.00270046,.00002133,0.3316,85.5350,288.2775,358.9115,0,U,41866,999,3506,0,-.8E-6,0
FENGYUN 4A,2016-077A,2026-06-13T15:27:10.310112,1.00270528,.00086469,2.3123,80.3284,152.7496,24.4534,0,U,41882,999,3489,0,-.347E-5,0
CYGFM05,2016-078A,2026-06-13T12:34:19.217856,15.56520924,.00067345,34.9573,284.8449,113.4693,246.6740,0,U,41884,999,52818,.31877221E-3,.23401E-3,0
CYGFM04,2016-078B,2026-06-13T13:40:24.379968,15.61328343,.00062536,34.9325,252.4140,160.8433,199.2528,0,U,41885,999,52843,.33168697E-3,.29265E-3,0
CYGFM02,2016-078C,2026-06-13T13:51:19.342080,15.64289095,.00072178,34.9407,247.0040,162.1411,197.9570,0,U,41886,999,52860,.34963399E-3,.34694E-3,0
CYGFM01,2016-078D,2026-06-13T13:52:40.871712,15.57196101,.00065437,34.9404,285.5717,107.2169,252.9272,0,U,41887,999,52814,.32796752E-3,.24699E-3,0
CYGFM08,2016-078E,2026-06-13T14:35:22.640352,15.59846806,.00078729,34.9434,265.0483,142.1478,217.9802,0,U,41888,999,52841,.33424446E-3,.27862E-3,0
CYGFM07,2016-078G,2026-06-13T13:36:51.680448,15.59945554,.0006614,34.9448,253.6641,159.7610,200.3379,0,U,41890,999,52843,.32760649E-3,.27397E-3,0
CYGFM03,2016-078H,2026-06-13T14:27:14.292864,15.59940615,.00060395,34.9404,255.3697,147.0763,213.0340,0,U,41891,999,52841,.32777401E-3,.27402E-3,0
