DMSP 5D-3 F16 (USA 172) 
1 28054U 03048A   26164.63773088  .00000016  00000+0  32152-4 0  9998
2 28054  98.9891 188.4426 0007587 149.4243 322.3580 14.14482858168982
METEOSAT-9 (MSG-2)      
1 28912U 05049B   26163.77290047  .00000130  00000+0  00000+0 0  9996
2 28912   9.3512  54.2102 0001546 347.3160 183.4652  1.00270154  6957
DMSP 5D-3 F17 (USA 191) 
1 29522U 06050A   26164.63413058  .00000040  00000+0  43086-4 0  9998
2 29522  98.7378 171.2769 0011248  68.5999 291.6374 14.14992634 11927
FENGYUN 3A              
1 32958U 08026A   26164.45266648  .00000051  00000+0  44590-4 0  9994
2 32958  98.6884 105.3557 0009445 133.4321 226.7643 14.19570404934873
GOES 14                 
1 35491U 09033A   26164.55600263 -.00000267  00000+0  00000+0 0  9997
2 35491   1.6804  83.0856 0001731   9.8379 153.0285  1.00111965  6555
DMSP 5D-3 F18 (USA 210) 
1 35951U 09057A   26164.60527339  .00000231  00000+0  14276-3 0  9996
2 35951  98.9037 145.3822 0009849 260.9030  99.1029 14.14894993859088
EWS-G2 (GOES 15)        
1 36411U 10008A   26164.60684764  .00000028  00000+0  00000+0 0  9992
2 36411   1.2674  82.9171 0005387  41.8918  59.2501  1.00275662 59600
COMS 1                  
1 36744U 10032A   26164.63673778 -.00000002  00000+0  00000+0 0  9997
2 36744   4.7955  75.3945 0011459  11.7092 131.6920  0.99162840 51051
FENGYUN 3B              
1 37214U 10059A   26164.63698612  .00000581  00000+0  32398-3 0  9993
2 37214  98.9626 210.6364 0021692 194.3256 280.6532 14.14842268806922
SUOMI NPP               
1 37849U 11061A   26164.60478112  .00000044  00000+0  42129-4 0  9997
2 37849  98.7954 105.5053 0001734  15.2804 344.8424 14.19516672757931
METEOSAT-10 (MSG-3)     
1 38552U 12035B   26164.33425508  .00000004  00000+0  00000+0 0  9995
2 38552   4.6622  61.0355 0001419 328.7695 352.4702  1.00276141 50819
METOP-B                 
1 38771U 12049A   26164.59966653  .00000102  00000+0  66670-4 0  9991
2 38771  98.6505 216.1703 0002452  28.4690 331.6621 14.21431816712758
INSAT-3D                
1 39216U 13038B   26164.64499600 -.00000329  00000+0  00000+0 0  9996
2 39216   1.9166  82.5842 0000571 309.0573 232.0387  1.00270818 47042
FENGYUN 3C              
1 39260U 13052A   26164.65148608  .00000065  00000+0  53880-4 0  9996
2 39260  98.4985 138.6887 0015418  37.3757 322.8487 14.15754365658067
METEOR-M 2              
1 40069U 14037A   26164.62610072  .00000212  00000+0  11602-3 0  9994
2 40069  98.5105 140.4901 0006884  52.8186 307.3620 14.21460858618818
HIMAWARI-8              
1 40267U 14060A   26164.65838021 -.00000264  00000+0  00000+0 0  9993
2 40267   0.0151 352.9462 0000986  93.9275 192.7700  1.00272908 42727
FENGYUN 2G              
1 40367U 14090A   26163.71230795 -.00000292  00000+0  00000+0 0  9998
2 40367   5.6261  72.8714 0003855 153.3439  30.9139  1.00274464 41952
METEOSAT-11 (MSG-4)     
1 40732U 15034A   26164.62118484  .00000074  00000+0  00000+0 0  9991
2 40732   3.1928  71.1314 0001755   8.9389  55.0512  1.00279241  7183
ELEKTRO-L 2             
1 41105U 15074A   26163.97488203 -.00000109  00000+0  00000+0 0  9996
2 41105   6.6819  70.5757 0000736 255.3930 271.7863  1.00270779 38465
SENTINEL-3A             
1 41335U 16011A   26164.63993694  .00000103  00000+0  60521-4 0  9994
2 41335  98.6249 232.0744 0001383 102.9517 257.1818 14.26739100537558
INSAT-3DR               
1 41752U 16054A   26164.61704339 -.00000066  00000+0  00000+0 0  9998
2 41752   0.0969  86.8646 0010616 187.1004 284.0782  1.00270808 35788
HIMAWARI-9              
1 41836U 16064A   26164.65838079 -.00000264  00000+0  00000+0 0  9995
2 41836   0.0493 148.2974 0000805 350.9768 140.4878  1.00270237 35176
GOES 16                 
1 41866U 16071A   26164.59861462 -.00000080  00000+0  00000+0 0  9997
2 41866   0.3316  85.5350 0000213 288.2775 358.9115  1.00270046 35067
FENGYUN 4A              
1 41882U 16077A   26164.64386933 -.00000347  00000+0  00000+0 0  9998
2 41882   2.3123  80.3284 0008646 152.7496  24.4534  1.00270528 34890
CYGFM05                 
1 41884U 16078A   26164.52383354  .00023401  00000+0  31877-3 0  9997
2 41884  34.9573 284.8449 0006734 113.4693 246.6740 15.56520924528186
CYGFM04                 
1 41885U 16078B   26164.56972662  .00029265  00000+0  33169-3 0  9998
2 41885  34.9325 252.4140 0006253 160.8433 199.2528 15.61328343528437
CYGFM02                 
1 41886U 16078C   26164.57730720  .00034694  00000+0  34963-3 0  9992
2 41886  34.9407 247.0040 0007217 162.1411 197.9570 15.64289095528604
CYGFM01                 
1 41887U 16078D   26164.57825083  .00024699  00000+0  32797-3 0  9997
2 41887  34.9404 285.5717 0006543 107.2169 252.9272 15.57196101528148
CYGFM08                 
1 41888U 16078E   26164.60790093  .00027862  00000+0  33424-3 0  9997
2 41888  34.9434 265.0483 0007872 142.1478 217.9802 15.59846806528418
CYGFM07                 
1 41890U 16078G   26164.56726482  .00027397  00000+0  32761-3 0  9992
2 41890  34.9448 253.6641 0006614 159.7610 200.3379 15.59945554528437
CYGFM03                 
1 41891U 16078H   26164.60224876  .00027402  00000+0  32777-3 0  9992
2 41891  34.9404 255.3697 0006039 147.0763 213.0340 15.59940615528410
